EUTELSAT QUANTUM        
1 49056U 21069B   25350.42321441  .00000149  00000+0  00000+0 0  9990
2 49056   0.0118   5.2060 0003568 272.6079   7.5753  1.00273452 16091
EUTELSAT KONNECT VHTS   
1 53765U 22110A   25350.77111088  .00000041  00000+0  00000+0 0  9993
2 53765   0.0649 101.3721 0002310 141.4952 123.1246  1.00270348  4990
EUTELSAT HOTBIRD 13F    
1 54048U 22134A   25348.91836404  .00000107  00000+0  00000+0 0  9996
2 54048   0.0492 293.4772 0002341  68.5165  65.4415  1.00271390 11520
EUTELSAT HOTBIRD 13G    
1 54225U 22146A   25350.77310422  .00000111  00000+0  00000+0 0  9995
2 54225   0.0513 235.9027 0001853 298.6351 202.4305  1.00271926  5636
EUTELSAT 10B            
1 54259U 22157A   25350.77249756  .00000092  00000+0  00000+0 0  9993
2 54259   0.0623  99.2195 0000678  21.2994 253.2156  1.00271819 11196
EUTELSAT 36D            
1 59346U 24059A   25350.63494245  .00000000  00000+0  00000+0 0  9997
2 59346   0.0246   4.3594 0000391   5.8864 339.6859  1.00271145  6314
